{"fetched_at":"2026-07-13T07:47:52.862Z","source":"https://celestrak.org/NORAD/elements/gp.php?GROUP=kuiper&FORMAT=JSON","constellation":"kuiper","records":[{"OBJECT_NAME":"KUIPER-00114","OBJECT_ID":"2025-171V","EPOCH":"2026-07-12T18:59:32.119872","CLASSIFICATION_TYPE":"U","MEAN_MOTION":14.79934105,"ECCENTRICITY":0.0000579,"INCLINATION":51.9014,"RA_OF_ASC_NODE":342.3966,"ARG_OF_PERICENTER":114.5106,"MEAN_ANOMALY":245.5917,"EPHEMERIS_TYPE":0,"NORAD_CAT_ID":65151,"ELEMENT_SET_NO":999,"REV_AT_EPOCH":5116,"BSTAR":0.00014927,"MEAN_MOTION_DOT":0.00000917,"MEAN_MOTION_DDOT":0},{"OBJECT_NAME":"KUIPER-00115","OBJECT_ID":"2025-171W","EPOCH":"2026-07-12T19:11:11.277312","CLASSIFICATION_TYPE":"U","MEAN_MOTION":14.79927563,"ECCENTRICITY":0.0000567,"INCLINATION":51.9024,"RA_OF_ASC_NODE":334.8611,"ARG_OF_PERICENTER":123.5026,"MEAN_ANOMALY":236.5991,"EPHEMERIS_TYPE":0,"NORAD_CAT_ID":65152,"ELEMENT_SET_NO":999,"REV_AT_EPOCH":5127,"BSTAR":0.00027355,"MEAN_MOTION_DOT":0.00001865,"MEAN_MOTION_DDOT":0},{"OBJECT_NAME":"KUIPER-00116","OBJECT_ID":"2025-171X","EPOCH":"2026-07-12T19:52:02.898048","CLASSIFICATION_TYPE":"U","MEAN_MOTION":14.79935016,"ECCENTRICITY":0.0000403,"INCLINATION":51.9017,"RA_OF_ASC_NODE":339.7724,"ARG_OF_PERICENTER":87.1131,"MEAN_ANOMALY":272.9877,"EPHEMERIS_TYPE":0,"NORAD_CAT_ID":65153,"ELEMENT_SET_NO":999,"REV_AT_EPOCH":5120,"BSTAR":0.000092837,"MEAN_MOTION_DOT":0.00000487,"MEAN_MOTION_DDOT":0},{"OBJECT_NAME":"KUIPER-00118","OBJECT_ID":"2025-171Y","EPOCH":"2026-07-12T19:48:05.928768","CLASSIFICATION_TYPE":"U","MEAN_MOTION":14.79930655,"ECCENTRICITY":0.0000432,"INCLINATION":51.9012,"RA_OF_ASC_NODE":342.2338,"ARG_OF_PERICENTER":96.4342,"MEAN_ANOMALY":263.667,"EPHEMERIS_TYPE":0,"NORAD_CAT_ID":65154,"ELEMENT_SET_NO":999,"REV_AT_EPOCH":5117,"BSTAR":0.00029347,"MEAN_MOTION_DOT":0.00002017,"MEAN_MOTION_DDOT":0},{"OBJECT_NAME":"KUIPER-00119","OBJECT_ID":"2025-171Z","EPOCH":"2026-07-12T15:15:51.391872","CLASSIFICATION_TYPE":"U","MEAN_MOTION":14.79940256,"ECCENTRICITY":0.0000169,"INCLINATION":51.9037,"RA_OF_ASC_NODE":330.6656,"ARG_OF_PERICENTER":297.0696,"MEAN_ANOMALY":63.0249,"EPHEMERIS_TYPE":0,"NORAD_CAT_ID":65155,"ELEMENT_SET_NO":999,"REV_AT_EPOCH":5131,"BSTAR":0.0002715,"MEAN_MOTION_DOT":0.0000185,"MEAN_MOTION_DDOT":0},{"OBJECT_NAME":"KUIPER-00120","OBJECT_ID":"2025-217A","EPOCH":"2026-07-12T11:13:25.855968","CLASSIFICATION_TYPE":"U","MEAN_MOTION":14.79928858,"ECCENTRICITY":0.00004796,"INCLINATION":51.8978,"RA_OF_ASC_NODE":221.2879,"ARG_OF_PERICENTER":88.4843,"MEAN_ANOMALY":271.6174,"EPHEMERIS_TYPE":0,"NORAD_CAT_ID":65762,"ELEMENT_SET_NO":999,"REV_AT_EPOCH":4321,"BSTAR":0.00015875696,"MEAN_MOTION_DOT":0.00000989,"MEAN_MOTION_DDOT":0},{"OBJECT_NAME":"KUIPER-00132","OBJECT_ID":"2025-217B","EPOCH":"2026-07-12T05:04:29.642016","CLASSIFICATION_TYPE":"U","MEAN_MOTION":15.43302615,"ECCENTRICITY":0.0007703,"INCLINATION":51.8532,"RA_OF_ASC_NODE":117.2651,"ARG_OF_PERICENTER":43.4187,"MEAN_ANOMALY":316.7407,"EPHEMERIS_TYPE":0,"NORAD_CAT_ID":65763,"ELEMENT_SET_NO":999,"REV_AT_EPOCH":4463,"BSTAR":0.00069026,"MEAN_MOTION_DOT":0.00030979,"MEAN_MOTION_DDOT":0},{"OBJECT_NAME":"KUIPER-00133","OBJECT_ID":"2025-217C","EPOCH":"2026-07-12T02:18:36.828576","CLASSIFICATION_TYPE":"U","MEAN_MOTION":14.79928904,"ECCENTRICITY":0.00004273,"INCLINATION":51.9026,"RA_OF_ASC_NODE":223.0385,"ARG_OF_PERICENTER":85.4935,"MEAN_ANOMALY":274.6076,"EPHEMERIS_TYPE":0,"NORAD_CAT_ID":65764,"ELEMENT_SET_NO":999,"REV_AT_EPOCH":4316,"BSTAR":0.00019405044,"MEAN_MOTION_DOT":0.00001258,"MEAN_MOTION_DDOT":0},{"OBJECT_NAME":"KUIPER-00139","OBJECT_ID":"2025-217D","EPOCH":"2026-07-12T08:00:47.491200","CLASSIFICATION_TYPE":"U","MEAN_MOTION":14.79931824,"ECCENTRICITY":0.00006151,"INCLINATION":51.898,"RA_OF_ASC_NODE":189.4467,"ARG_OF_PERICENTER":74.1254,"MEAN_ANOMALY":285.9777,"EPHEMERIS_TYPE":0,"NORAD_CAT_ID":65765,"ELEMENT_SET_NO":999,"REV_AT_EPOCH":4365,"BSTAR":0.00019454664,"MEAN_MOTION_DOT":0.00001262,"MEAN_MOTION_DDOT":0},{"OBJECT_NAME":"KUIPER-00142","OBJECT_ID":"2025-217E","EPOCH":"2026-07-11T01:38:28.562496","CLASSIFICATION_TYPE":"U","MEAN_MOTION":14.79932949,"ECCENTRICITY":0.00004754,"INCLINATION":51.8984,"RA_OF_ASC_NODE":210.0035,"ARG_OF_PERICENTER":75.877,"MEAN_ANOMALY":284.2245,"EPHEMERIS_TYPE":0,"NORAD_CAT_ID":65766,"ELEMENT_SET_NO":999,"REV_AT_EPOCH":4325,"BSTAR":0.00019381007,"MEAN_MOTION_DOT":0.00001257,"MEAN_MOTION_DDOT":0},{"OBJECT_NAME":"KUIPER-00145","OBJECT_ID":"2025-217F","EPOCH":"2026-07-12T09:59:30.756480","CLASSIFICATION_TYPE":"U","MEAN_MOTION":14.79915746,"ECCENTRICITY":0.00004875,"INCLINATION":51.8986,"RA_OF_ASC_NODE":206.5637,"ARG_OF_PERICENTER":60.3649,"MEAN_ANOMALY":299.7362,"EPHEMERIS_TYPE":0,"NORAD_CAT_ID":65767,"ELEMENT_SET_NO":999,"REV_AT_EPOCH":4341,"BSTAR":0.00019507654,"MEAN_MOTION_DOT":0.00001266,"MEAN_MOTION_DDOT":0},{"OBJECT_NAME":"KUIPER-00147","OBJECT_ID":"2025-217G","EPOCH":"2026-07-12T02:37:59.645568","CLASSIFICATION_TYPE":"U","MEAN_MOTION":14.79934514,"ECCENTRICITY":0.00005325,"INCLINATION":51.8976,"RA_OF_ASC_NODE":210.4003,"ARG_OF_PERICENTER":86.9561,"MEAN_ANOMALY":273.1462,"EPHEMERIS_TYPE":0,"NORAD_CAT_ID":65768,"ELEMENT_SET_NO":999,"REV_AT_EPOCH":4333,"BSTAR":0.00016145943,"MEAN_MOTION_DOT":0.0000101,"MEAN_MOTION_DDOT":0},{"OBJECT_NAME":"KUIPER-00148","OBJECT_ID":"2025-217H","EPOCH":"2026-07-12T20:00:01.999008","CLASSIFICATION_TYPE":"U","MEAN_MOTION":14.78092814,"ECCENTRICITY":0.0000446,"INCLINATION":51.9024,"RA_OF_ASC_NODE":189.688,"ARG_OF_PERICENTER":44.6637,"MEAN_ANOMALY":124.7877,"EPHEMERIS_TYPE":0,"NORAD_CAT_ID":65769,"ELEMENT_SET_NO":999,"REV_AT_EPOCH":451,"BSTAR":0.012844,"MEAN_MOTION_DOT":0.00094856,"MEAN_MOTION_DDOT":0},{"OBJECT_NAME":"KUIPER-00150","OBJECT_ID":"2025-217J","EPOCH":"2026-07-12T10:28:41.879712","CLASSIFICATION_TYPE":"U","MEAN_MOTION":14.79930796,"ECCENTRICITY":0.00004523,"INCLINATION":51.9004,"RA_OF_ASC_NODE":218.9888,"ARG_OF_PERICENTER":83.4182,"MEAN_ANOMALY":276.6832,"EPHEMERIS_TYPE":0,"NORAD_CAT_ID":65770,"ELEMENT_SET_NO":999,"REV_AT_EPOCH":4324,"BSTAR":0.00018940718,"MEAN_MOTION_DOT":0.00001223,"MEAN_MOTION_DDOT":0},{"OBJECT_NAME":"KUIPER-00151","OBJECT_ID":"2025-217K","EPOCH":"2026-07-12T02:34:05.739168","CLASSIFICATION_TYPE":"U","MEAN_MOTION":14.7993708,"ECCENTRICITY":0.00003714,"INCLINATION":51.9006,"RA_OF_ASC_NODE":212.9441,"ARG_OF_PERICENTER":83.9927,"MEAN_ANOMALY":276.1078,"EPHEMERIS_TYPE":0,"NORAD_CAT_ID":65771,"ELEMENT_SET_NO":999,"REV_AT_EPOCH":4330,"BSTAR":0.00019300997,"MEAN_MOTION_DOT":0.00001251,"MEAN_MOTION_DDOT":0},{"OBJECT_NAME":"KUIPER-00152","OBJECT_ID":"2025-217L","EPOCH":"2026-07-12T00:27:41.632704","CLASSIFICATION_TYPE":"U","MEAN_MOTION":14.79925203,"ECCENTRICITY":0.00004713,"INCLINATION":51.8998,"RA_OF_ASC_NODE":200.8166,"ARG_OF_PERICENTER":74.872,"MEAN_ANOMALY":285.2294,"EPHEMERIS_TYPE":0,"NORAD_CAT_ID":65772,"ELEMENT_SET_NO":999,"REV_AT_EPOCH":4346,"BSTAR":0.00019558238,"MEAN_MOTION_DOT":0.0000127,"MEAN_MOTION_DDOT":0}]}
