KUIPER-00114            
1 65151U 25171V   26193.79134398  .00000917  00000+0  14927-3 0  9991
2 65151  51.9014 342.3966 0000579 114.5106 245.5917 14.79934105 51161
KUIPER-00115            
1 65152U 25171W   26193.79943608  .00001865  00000+0  27355-3 0  9996
2 65152  51.9024 334.8611 0000567 123.5026 236.5991 14.79927563 51278
KUIPER-00116            
1 65153U 25171X   26193.82781132  .00000487  00000+0  92837-4 0  9990
2 65153  51.9017 339.7724 0000403  87.1131 272.9877 14.79935016 51203
KUIPER-00118            
1 65154U 25171Y   26193.82506862  .00002017  00000+0  29347-3 0  9992
2 65154  51.9012 342.2338 0000432  96.4342 263.6670 14.79930655 51176
KUIPER-00119            
1 65155U 25171Z   26193.63601148  .00001850  00000+0  27150-3 0  9999
2 65155  51.9037 330.6656 0000169 297.0696  63.0249 14.79940256 51314
KUIPER-00120            
1 65762U 25217A   26193.46766037  .00000989  00000+0  15876-3 0  9998
2 65762  51.8978 221.2879 0000479  88.4843 271.6174 14.79928858 43211
KUIPER-00132            
1 65763U 25217B   26193.21145419  .00030979  00000+0  69026-3 0  9995
2 65763  51.8532 117.2651 0007703  43.4187 316.7407 15.43302615 44635
KUIPER-00133            
1 65764U 25217C   26193.09625959  .00001258  00000+0  19405-3 0  9998
2 65764  51.9026 223.0385 0000427  85.4935 274.6076 14.79928904 43162
KUIPER-00139            
1 65765U 25217D   26193.33388300  .00001262  00000+0  19455-3 0  9992
2 65765  51.8980 189.4467 0000615  74.1254 285.9777 14.79931824 43657
KUIPER-00142            
1 65766U 25217E   26192.06838614  .00001257  00000+0  19381-3 0  9992
2 65766  51.8984 210.0035 0000475  75.8770 284.2245 14.79932949 43256
KUIPER-00145            
1 65767U 25217F   26193.41632820  .00001266  00000+0  19508-3 0  9995
2 65767  51.8986 206.5637 0000487  60.3649 299.7362 14.79915746 43419
KUIPER-00147            
1 65768U 25217G   26193.10971812  .00001010  00000+0  16146-3 0  9991
2 65768  51.8976 210.4003 0000532  86.9561 273.1462 14.79934514 43330
KUIPER-00148            
1 65769U 25217H   26193.83335647  .00094856  00000+0  12844-1 0  9991
2 65769  51.9024 189.6880 0000446  44.6637 124.7877 14.78092814  4510
KUIPER-00150            
1 65770U 25217J   26193.43659583  .00001223  00000+0  18941-3 0  9999
2 65770  51.9004 218.9888 0000452  83.4182 276.6832 14.79930796 43249
KUIPER-00151            
1 65771U 25217K   26193.10701087  .00001251  00000+0  19301-3 0  9993
2 65771  51.9006 212.9441 0000371  83.9927 276.1078 14.79937080 43300
KUIPER-00152            
1 65772U 25217L   26193.01923186  .00001270  00000+0  19558-3 0  9995
2 65772  51.8998 200.8166 0000471  74.8720 285.2294 14.79925203 43463
